{
  "norad_id": 46141,
  "name": "STARLINK-1596",
  "history": [
    {
      "epoch": "2026-03-28T10:16:04.845504Z",
      "apogee_km": 424.7617313691544,
      "perigee_km": 422.5873282593029,
      "latitude_deg": 6.27916904296605e-05,
      "longitude_deg": 161.5043293456541,
      "height_km": 423.5066427386916,
      "semi_major_axis_km": 6801.811529814228,
      "eccentricity": 0.00015984,
      "inclination_deg": 53.0414,
      "raan_deg": 141.3729,
      "arg_perigee_deg": 347.6248,
      "mean_anomaly_deg": 12.472,
      "mean_motion_rev_day": 15.47625479
    },
    {
      "epoch": "2026-03-30T02:33:39.239424Z",
      "apogee_km": 424.0797631808491,
      "perigee_km": 421.49486786700527,
      "latitude_deg": 2.121191053702975e-05,
      "longitude_deg": -92.5744794343983,
      "height_km": 422.3889226105293,
      "semi_major_axis_km": 6800.924315523927,
      "eccentricity": 0.00019004,
      "inclination_deg": 53.0406,
      "raan_deg": 133.3422,
      "arg_perigee_deg": 358.7379,
      "mean_anomaly_deg": 1.3623,
      "mean_motion_rev_day": 15.47928332
    },
    {
      "epoch": "2026-03-30T11:51:28.918944Z",
      "apogee_km": 423.81867677342416,
      "perigee_km": 421.2839242300597,
      "latitude_deg": 2.573119845434217e-05,
      "longitude_deg": 125.73270670225057,
      "height_km": 422.1780148018746,
      "semi_major_axis_km": 6800.688300501742,
      "eccentricity": 0.00018636,
      "inclination_deg": 53.0398,
      "raan_deg": 131.4882,
      "arg_perigee_deg": 1.6418,
      "mean_anomaly_deg": 358.4595,
      "mean_motion_rev_day": 15.48008913
    }
  ]
}